[{"OBJECT_NAME":"STARLINK-1246","OBJECT_ID":"2020-012BK","EPOCH":"2026-03-09T07:11:40.046784","MEAN_MOTION":15.30215288,"ECCENTRICITY":0.0001484,"INCLINATION":53.1615,"RA_OF_ASC_NODE":41.0601,"ARG_OF_PERICENTER":96.3755,"MEAN_ANOMALY":263.7415,"EPHEMERIS_TYPE":0,"CLASSIFICATION_TYPE":"U","NORAD_CAT_ID":45235,"ELEMENT_SET_NO":999,"REV_AT_EPOCH":33491,"BSTAR":0.00020978976,"MEAN_MOTION_DOT":5.862e-5,"MEAN_MOTION_DDOT":0},{"OBJECT_NAME":"SITRO-AIS 5 (KATYS)","OBJECT_ID":"2023-091L","EPOCH":"2026-03-09T22:36:44.932608","MEAN_MOTION":15.27079182,"ECCENTRICITY":0.00133776,"INCLINATION":97.5176,"RA_OF_ASC_NODE":132.0172,"ARG_OF_PERICENTER":94.5677,"MEAN_ANOMALY":265.709,"EPHEMERIS_TYPE":0,"CLASSIFICATION_TYPE":"U","NORAD_CAT_ID":57176,"ELEMENT_SET_NO":999,"REV_AT_EPOCH":14918,"BSTAR":0.00057530772,"MEAN_MOTION_DOT":0.00015262,"MEAN_MOTION_DDOT":0}]
